{
    "links": {
        "self": "http://www.neowsapp.com/rest/v1/neo/3933023?api_key=iIulBulltgU6a56xZRHN4H3l9WmuAYTsLGpBGhQ2"
    },
    "id": "3933023",
    "neo_reference_id": "3933023",
    "name": "(2019 XR3)",
    "designation": "2019 XR3",
    "nasa_jpl_url": "http://ssd.jpl.nasa.gov/sbdb.cgi?sstr=3933023",
    "absolute_magnitude_h": 22.3,
    "estimated_diameter": {
        "kilometers": {
            "estimated_diameter_min": 0.0921626549,
            "estimated_diameter_max": 0.2060819612
        },
        "meters": {
            "estimated_diameter_min": 92.1626548503,
            "estimated_diameter_max": 206.0819612321
        },
        "miles": {
            "estimated_diameter_min": 0.057267201,
            "estimated_diameter_max": 0.1280533543
        },
        "feet": {
            "estimated_diameter_min": 302.370924539,
            "estimated_diameter_max": 676.1219416887
        }
    },
    "is_potentially_hazardous_asteroid": false,
    "close_approach_data": [
        {
            "close_approach_date": "1934-07-20",
            "close_approach_date_full": "1934-Jul-20 20:06",
            "epoch_date_close_approach": -1118721240000,
            "relative_velocity": {
                "kilometers_per_second": "13.3342469146",
                "kilometers_per_hour": "48003.2888926331",
                "miles_per_hour": "29827.3769233141"
            },
            "miss_distance": {
                "astronomical": "0.091646165",
                "lunar": "35.650358185",
                "kilometers": "13710071.07766855",
                "miles": "8519043.13438399"
            },
            "orbiting_body": "Earth"
        },
        {
            "close_approach_date": "2019-11-26",
            "close_approach_date_full": "2019-Nov-26 22:36",
            "epoch_date_close_approach": 1574807760000,
            "relative_velocity": {
                "kilometers_per_second": "14.3464782072",
                "kilometers_per_hour": "51647.321545789",
                "miles_per_hour": "32091.6371016043"
            },
            "miss_distance": {
                "astronomical": "0.1482344798",
                "lunar": "57.6632126422",
                "kilometers": "22175562.438638026",
                "miles": "13779255.5467997188"
            },
            "orbiting_body": "Earth"
        }
    ],
    "orbital_data": {
        "orbit_id": "5",
        "orbit_determination_date": "2020-01-03 05:36:03",
        "first_observation_date": "2019-12-15",
        "last_observation_date": "2020-01-03",
        "data_arc_in_days": 19,
        "observations_used": 26,
        "orbit_uncertainty": "8",
        "minimum_orbit_intersection": ".064145",
        "jupiter_tisserand_invariant": "4.174",
        "epoch_osculation": "2458836.5",
        "eccentricity": ".4765720096847357",
        "semi_major_axis": "1.62746507098381",
        "inclination": "6.413404808743137",
        "ascending_node_longitude": "337.9221079946169",
        "orbital_period": "758.343452591337",
        "perihelion_distance": ".8518607714133448",
        "perihelion_argument": "23.52878709648159",
        "aphelion_distance": "2.403069370554276",
        "perihelion_time": "2458772.672122609001",
        "mean_anomaly": "30.30030230002164",
        "mean_motion": ".4747189400394284",
        "equinox": "J2000",
        "orbit_class": {
            "orbit_class_type": "APO",
            "orbit_class_description": "Near-Earth asteroid orbits which cross the Earth’s orbit similar to that of 1862 Apollo",
            "orbit_class_range": "a (semi-major axis) > 1.0 AU; q (perihelion) < 1.017 AU"
        }
    },
    "is_sentry_object": false
}